start=new Date('2022-05-06T00:00:00.000Z').valueOf();
sats=[{"OBJECT_ID":"2020-006AT","MEAN_MOTION_DOT":"0.00002945","FILE":"3430353","LAUNCH_DATE":"2020-01-29","OBJECT_TYPE":"PAYLOAD","PERIOD":"95.592","DECAY_DATE":null,"REF_FRAME":"TEME","INCLINATION":"53.0555","OBJECT_NAME":"STARLINK-1179","COUNTRY_CODE":"US","RCS_SIZE":"LARGE","PERIAPSIS":"546.063","ARG_OF_PERICENTER":"58.1476","CENTER_NAME":"EARTH","MEAN_ELEMENT_THEORY":"SGP4","BSTAR":"0.00021644000000","MEAN_MOTION":"15.06409736","GP_ID":"202766185","SEMIMAJOR_AXIS":"6925.319","TLE_LINE1":"1 45085U 20006AT  22125.12800446  .00002945  00000-0  21644-3 0  9997","ELEMENT_SET_NO":"999","EPHEMERIS_TYPE":"0","APOAPSIS":"548.305","TIME_SYSTEM":"UTC","CLASSIFICATION_TYPE":"U","TLE_LINE2":"2 45085  53.0555  71.9293 0001619  58.1476 301.9670 15.06409736125326","NORAD_CAT_ID":"45085","ECCENTRICITY":"0.00016190","MEAN_MOTION_DDOT":"0.0000000000000","EPOCH":"2022-05-05T03:04:19.585344","MEAN_ANOMALY":"301.9670","SITE":"AFETR","REV_AT_EPOCH":"12532","RA_OF_ASC_NODE":"71.9293"},{"MEAN_MOTION_DDOT":"0.0000000000000","EPOCH":"2022-05-05T13:05:37.165920","ECCENTRICITY":"0.00023760","NORAD_CAT_ID":"45086","REV_AT_EPOCH":"12537","SITE":"AFETR","RA_OF_ASC_NODE":"62.6472","MEAN_ANOMALY":"283.6040","TLE_LINE2":"2 45086  53.0005  62.6472 0002376  76.5216 283.6040 15.13530426125371","CLASSIFICATION_TYPE":"U","TIME_SYSTEM":"UTC","GP_ID":"202766936","SEMIMAJOR_AXIS":"6903.581","ELEMENT_SET_NO":"999","TLE_LINE1":"1 45086U 20006AU  22125.54556905  .00035167  00000-0  19470-2 0  9997","APOAPSIS":"527.086","EPHEMERIS_TYPE":"0","MEAN_ELEMENT_THEORY":"SGP4","CENTER_NAME":"EARTH","MEAN_MOTION":"15.13530426","BSTAR":"0.00194700000000","OBJECT_NAME":"STARLINK-1181","REF_FRAME":"TEME","INCLINATION":"53.0005","ARG_OF_PERICENTER":"76.5216","COUNTRY_CODE":"US","PERIAPSIS":"523.805","RCS_SIZE":"LARGE","OBJECT_TYPE":"PAYLOAD","PERIOD":"95.142","DECAY_DATE":null,"MEAN_MOTION_DOT":"0.00035167","FILE":"3430353","LAUNCH_DATE":"2020-01-29","OBJECT_ID":"2020-006AU"},{"FILE":"3430353","LAUNCH_DATE":"2020-01-29","MEAN_MOTION_DOT":"0.00006550","OBJECT_ID":"2020-006AV","INCLINATION":"53.0548","REF_FRAME":"TEME","OBJECT_NAME":"STARLINK-1185","PERIAPSIS":"546.150","RCS_SIZE":"LARGE","COUNTRY_CODE":"US","ARG_OF_PERICENTER":"71.1530","PERIOD":"95.591","OBJECT_TYPE":"PAYLOAD","DECAY_DATE":null,"GP_ID":"202767187","SEMIMAJOR_AXIS":"6925.317","EPHEMERIS_TYPE":"0","APOAPSIS":"548.213","TLE_LINE1":"1 45087U 20006AV  22125.24596854  .00006550  00000-0  45809-3 0  9992","ELEMENT_SET_NO":"999","CENTER_NAME":"EARTH","MEAN_ELEMENT_THEORY":"SGP4","BSTAR":"0.00045809000000","MEAN_MOTION":"15.06410427","NORAD_CAT_ID":"45087","ECCENTRICITY":"0.00014900","EPOCH":"2022-05-05T05:54:11.681856","MEAN_MOTION_DDOT":"0.0000000000000","MEAN_ANOMALY":"288.9621","RA_OF_ASC_NODE":"71.4007","SITE":"AFETR","REV_AT_EPOCH":"12534","TIME_SYSTEM":"UTC","TLE_LINE2":"2 45087  53.0548  71.4007 0001490  71.1530 288.9621 15.06410427125342","CLASSIFICATION_TYPE":"U"},{"LAUNCH_DATE":"2020-01-29","FILE":"3430353","MEAN_MOTION_DOT":"0.00000507","OBJECT_ID":"2020-006AW","REF_FRAME":"TEME","INCLINATION":"53.0548","OBJECT_NAME":"STARLINK-1183","COUNTRY_CODE":"US","RCS_SIZE":"LARGE","PERIAPSIS":"546.093","ARG_OF_PERICENTER":"56.8894","OBJECT_TYPE":"PAYLOAD","PERIOD":"95.592","DECAY_DATE":null,"SEMIMAJOR_AXIS":"6925.356","GP_ID":"202767429","TLE_LINE1":"1 45088U 20006AW  22125.53347113  .00000507  00000-0  52946-4 0  9994","ELEMENT_SET_NO":"999","EPHEMERIS_TYPE":"0","APOAPSIS":"548.349","CENTER_NAME":"EARTH","MEAN_ELEMENT_THEORY":"SGP4","BSTAR":"0.00005294600000","MEAN_MOTION":"15.06397623","ECCENTRICITY":"0.00016290","NORAD_CAT_ID":"45088","MEAN_MOTION_DDOT":"0.0000000000000","EPOCH":"2022-05-05T12:48:11.905632","MEAN_ANOMALY":"303.2251","SITE":"AFETR","REV_AT_EPOCH":"12538","RA_OF_ASC_NODE":"70.1220","TIME_SYSTEM":"UTC","TLE_LINE2":"2 45088  53.0548  70.1220 0001629  56.8894 303.2251 15.06397623125389","CLASSIFICATION_TYPE":"U"},{"OBJECT_NAME":"STARLINK-1136","REF_FRAME":"TEME","INCLINATION":"53.0580","ARG_OF_PERICENTER":"68.2720","COUNTRY_CODE":"US","RCS_SIZE":"LARGE","PERIAPSIS":"546.112","OBJECT_TYPE":"PAYLOAD","PERIOD":"95.592","DECAY_DATE":null,"MEAN_MOTION_DOT":"0.00000525","FILE":"3430750","LAUNCH_DATE":"2020-01-29","OBJECT_ID":"2020-006AX","MEAN_MOTION_DDOT":"0.0000000000000","EPOCH":"2022-05-05T19:08:59.708256","NORAD_CAT_ID":"45089","ECCENTRICITY":"0.00015820","REV_AT_EPOCH":"12543","SITE":"AFETR","RA_OF_ASC_NODE":"68.9375","MEAN_ANOMALY":"291.8438","TLE_LINE2":"2 45089  53.0580  68.9375 0001582  68.2720 291.8438 15.06401828125433","CLASSIFICATION_TYPE":"U","TIME_SYSTEM":"UTC","GP_ID":"202800894","SEMIMAJOR_AXIS":"6925.343","TLE_LINE1":"1 45089U 20006AX  22125.79791329  .00000525  00000-0  54171-4 0  9997","ELEMENT_SET_NO":"999","EPHEMERIS_TYPE":"0","APOAPSIS":"548.304","MEAN_ELEMENT_THEORY":"SGP4","CENTER_NAME":"EARTH","MEAN_MOTION":"15.06401828","BSTAR":"0.00005417100000"},{"FILE":"3430353","LAUNCH_DATE":"2020-01-29","MEAN_MOTION_DOT":"0.00000320","OBJECT_ID":"2020-006AY","OBJECT_NAME":"STARLINK-1176","INCLINATION":"53.0561","REF_FRAME":"TEME","ARG_OF_PERICENTER":"67.5382","RCS_SIZE":"LARGE","PERIAPSIS":"546.156","COUNTRY_CODE":"US","OBJECT_TYPE":"PAYLOAD","PERIOD":"95.592","DECAY_DATE":null,"SEMIMAJOR_AXIS":"6925.331","GP_ID":"202766436","EPHEMERIS_TYPE":"0","APOAPSIS":"548.237","TLE_LINE1":"1 45090U 20006AY  22125.12064121  .00000320  00000-0  40343-4 0  9998","ELEMENT_SET_NO":"999","MEAN_ELEMENT_THEORY":"SGP4","CENTER_NAME":"EARTH","MEAN_MOTION":"15.06405602","BSTAR":"0.00004034300000","EPOCH":"2022-05-05T02:53:43.400544","MEAN_MOTION_DDOT":"0.0000000000000","ECCENTRICITY":"0.00015030","NORAD_CAT_ID":"45090","RA_OF_ASC_NODE":"71.9743","REV_AT_EPOCH":"12532","SITE":"AFETR","MEAN_ANOMALY":"292.5766","CLASSIFICATION_TYPE":"U","TLE_LINE2":"2 45090  53.0561  71.9743 0001503  67.5382 292.5766 15.06405602125320","TIME_SYSTEM":"UTC"},{"DECAY_DATE":null,"PERIOD":"95.591","OBJECT_TYPE":"PAYLOAD","RCS_SIZE":"LARGE","PERIAPSIS":"546.026","COUNTRY_CODE":"US","ARG_OF_PERICENTER":"63.6104","INCLINATION":"53.0555","REF_FRAME":"TEME","OBJECT_NAME":"STARLINK-1137","OBJECT_ID":"2020-006BA","FILE":"3430353","MEAN_MOTION_DOT":"0.00005806","LAUNCH_DATE":"2020-01-29","TIME_SYSTEM":"UTC","TLE_LINE2":"2 45092  53.0555  70.0140 0001655  63.6104 296.5054 15.06413526125387","CLASSIFICATION_TYPE":"U","MEAN_ANOMALY":"296.5054","RA_OF_ASC_NODE":"70.0140","REV_AT_EPOCH":"12538","SITE":"AFETR","ECCENTRICITY":"0.00016550","NORAD_CAT_ID":"45092","EPOCH":"2022-05-05T13:25:20.959104","MEAN_MOTION_DDOT":"0.0000000000000","BSTAR":"0.00040822000000","MEAN_MOTION":"15.06413526","CENTER_NAME":"EARTH","MEAN_ELEMENT_THEORY":"SGP4","EPHEMERIS_TYPE":"0","APOAPSIS":"548.318","TLE_LINE1":"1 45092U 20006BA  22125.55927036  .00005806  00000-0  40822-3 0  9995","ELEMENT_SET_NO":"999","SEMIMAJOR_AXIS":"6925.307","GP_ID":"202767688"},{"MEAN_ANOMALY":"292.0302","RA_OF_ASC_NODE":"71.5143","SITE":"AFETR","REV_AT_EPOCH":"12533","ECCENTRICITY":"0.00016990","NORAD_CAT_ID":"45093","EPOCH":"2022-05-05T05:22:21.215424","MEAN_MOTION_DDOT":"0.0000000000000","TIME_SYSTEM":"UTC","CLASSIFICATION_TYPE":"U","TLE_LINE2":"2 45093  53.0559  71.5143 0001699  68.0868 292.0302 15.06412415125333","EPHEMERIS_TYPE":"0","APOAPSIS":"548.352","ELEMENT_SET_NO":"999","TLE_LINE1":"1 45093U 20006BB  22125.22385666  .00004706  00000-0  33452-3 0  9996","SEMIMAJOR_AXIS":"6925.311","GP_ID":"202767930","BSTAR":"0.00033452000000","MEAN_MOTION":"15.06412415","CENTER_NAME":"EARTH","MEAN_ELEMENT_THEORY":"SGP4","PERIAPSIS":"545.999","RCS_SIZE":"LARGE","COUNTRY_CODE":"US","ARG_OF_PERICENTER":"68.0868","INCLINATION":"53.0559","REF_FRAME":"TEME","OBJECT_NAME":"STARLINK-1142","DECAY_DATE":null,"OBJECT_TYPE":"PAYLOAD","PERIOD":"95.591","LAUNCH_DATE":"2020-01-29","FILE":"3430353","MEAN_MOTION_DOT":"0.00004706","OBJECT_ID":"2020-006BB"},{"BSTAR":"0.00017602000000","MEAN_MOTION":"15.06405986","CENTER_NAME":"EARTH","MEAN_ELEMENT_THEORY":"SGP4","TLE_LINE1":"1 45094U 20006BC  22125.57033350  .00002342  00000-0  17602-3 0  9998","ELEMENT_SET_NO":"999","APOAPSIS":"548.513","EPHEMERIS_TYPE":"0","SEMIMAJOR_AXIS":"6925.330","GP_ID":"202800396","TIME_SYSTEM":"UTC","CLASSIFICATION_TYPE":"U","TLE_LINE2":"2 45094  53.0550  69.9570 0001903  61.0450 299.0730 15.06405986125391","MEAN_ANOMALY":"299.0730","REV_AT_EPOCH":"12539","SITE":"AFETR","RA_OF_ASC_NODE":"69.9570","NORAD_CAT_ID":"45094","ECCENTRICITY":"0.00019030","MEAN_MOTION_DDOT":"0.0000000000000","EPOCH":"2022-05-05T13:41:16.814400","OBJECT_ID":"2020-006BC","LAUNCH_DATE":"2020-01-29","FILE":"3430750","MEAN_MOTION_DOT":"0.00002342","DECAY_DATE":null,"PERIOD":"95.592","OBJECT_TYPE":"PAYLOAD","COUNTRY_CODE":"US","PERIAPSIS":"545.877","RCS_SIZE":"LARGE","ARG_OF_PERICENTER":"61.0450","REF_FRAME":"TEME","INCLINATION":"53.0550","OBJECT_NAME":"STARLINK-1146"},{"ARG_OF_PERICENTER":"63.8162","COUNTRY_CODE":"US","PERIAPSIS":"545.925","RCS_SIZE":"LARGE","OBJECT_NAME":"STARLINK-1147","REF_FRAME":"TEME","INCLINATION":"53.0545","DECAY_DATE":null,"PERIOD":"95.591","OBJECT_TYPE":"PAYLOAD","MEAN_MOTION_DOT":"0.00004323","FILE":"3430353","LAUNCH_DATE":"2020-01-29","OBJECT_ID":"2020-006BD","SITE":"AFETR","REV_AT_EPOCH":"12534","RA_OF_ASC_NODE":"71.4286","MEAN_ANOMALY":"296.3010","MEAN_MOTION_DDOT":"0.0000000000000","EPOCH":"2022-05-05T05:48:52.701696","NORAD_CAT_ID":"45095","ECCENTRICITY":"0.00017880","TLE_LINE2":"2 45095  53.0545  71.4286 0001788  63.8162 296.3010 15.06416345125346","CLASSIFICATION_TYPE":"U","TIME_SYSTEM":"UTC","TLE_LINE1":"1 45095U 20006BD  22125.24227664  .00004323  00000-0  30883-3 0  9993","ELEMENT_SET_NO":"999","EPHEMERIS_TYPE":"0","APOAPSIS":"548.402","GP_ID":"202766937","SEMIMAJOR_AXIS":"6925.298","MEAN_MOTION":"15.06416345","BSTAR":"0.00030883000000","MEAN_ELEMENT_THEORY":"SGP4","CENTER_NAME":"EARTH"}];
